ONEWEB-0424             
1 50497U 21132AE  23269.23256131  .00000136  00000+0  31183-3 0  9997
2 50497  87.9220 173.3377 0001725  59.1988 300.9314 13.18685484 90514
ONEWEB-0426             
1 50498U 21132AF  23269.27048555 -.00000011  00000+0 -59745-4 0  9990
2 50498  87.9296 173.3375 0001566  86.5068 273.6243 13.18685153 90466
ONEWEB-0427             
1 50499U 21132AG  23269.23045270  .00000182  00000+0  42891-3 0  9998
2 50499  87.9221 173.3418 0001514  73.5122 286.6177 13.18685708 91785
ONEWEB-0429             
1 50500U 21132AH  23269.29368050 -.00015303  00000+0 -38870-1 0  9994
2 50500  87.9283 173.3156 0002258  64.4882 295.6484 13.18762348 90464
ONEWEB-0430             
1 50501U 21132AJ  23269.28313848 -.00000038  00000+0 -12888-3 0  9991
2 50501  87.9299 173.3127 0001839  66.7215 293.4111 13.18682719 90500
ONEWEB-0432             
1 50502U 21132AK  23269.23886828 -.00000188  00000+0 -51043-3 0  9992
2 50502  87.9220 173.3368 0001848  72.9825 287.1509 13.18685758 90459
ONEWEB-0440             
1 50503U 21132AL  23269.30210654  .00000156  00000+0  36178-3 0  9994
2 50503  87.9223 173.3384 0002253  91.3078 268.8312 13.18686193 90459
ONEWEB-0450             
1 50504U 21132AM  23269.29577793  .00000115  00000+0  25950-3 0  9994
2 50504  87.9268 173.3438 0002231  70.3099 289.8274 13.18684330 90489
